VCC A                   
1 44428U 98067QN  19332.44657806  .00007862  00000-0  12756-3 0  9997
2 44428  51.6418 264.5714 0002237 320.4131  39.6696 15.53756693 23066
ENTRYSAT                
1 44429U 98067QP  19332.81872803  .00009324  00000-0  14812-3 0  9995
2 44429  51.6409 262.5545 0001856 311.3608  48.7223 15.54088180 23125
VCC C                   
1 44430U 98067QQ  19332.81482636  .00010922  00000-0  17086-3 0  9990
2 44430  51.6413 262.5304 0002026 328.3055  31.7814 15.54311171 21944
VCC B                   
1 44431U 98067QR  19332.12678048  .00008407  00000-0  13592-3 0  9992
2 44431  51.6417 266.1837 0002335 316.3150  43.7655 15.53748363 22950
